{
  "type": "FeatureCollection",
  "features": [
    {
      "type": "Feature",
      "properties": {
        "norad_id": 58701,
        "name": "TIANMU-1 16",
        "group": "weather",
        "lat": 36.75023677957654,
        "lon": 159.671339937485,
        "alt_km": 490.11135965212634,
        "timestamp": "2025-12-10T09:57:44.348371+00:00",
        "meta_object_name": "TIANMU-1 16",
        "meta_object_id": "2024-004B",
        "meta_epoch": "2025-12-09T19:37:16.591296",
        "meta_mean_motion": 15.24370836,
        "meta_eccentricity": 0.0004613,
        "meta_inclination": 97.457,
        "meta_ra_of_asc_node": 164.6898,
        "meta_arg_of_pericenter": 309.2998,
        "meta_mean_anomaly": 50.783,
        "meta_ephemeris_type": 0,
        "meta_classification_type": "U",
        "meta_norad_cat_id": 58701,
        "meta_element_set_no": 999,
        "meta_rev_at_epoch": 10690,
        "meta_bstar": 0.00042548,
        "meta_mean_motion_dot": 0.00010356,
        "meta_mean_motion_ddot": 0,
        "tle_line1": "1 58701U 24004B   25343.81755314  .00010356  00000+0  42548-3 0  9992",
        "tle_line2": "2 58701  97.4570 164.6898 0004613 309.2998  50.7830 15.24370836106909"
      },
      "geometry": {
        "type": "Point",
        "coordinates": [
          159.671339937485,
          36.75023677957654
        ]
      }
    },
    {
      "type": "Feature",
      "properties": {
        "norad_id": 58702,
        "name": "TIANMU-1 17",
        "group": "weather",
        "lat": 57.86772663817017,
        "lon": -2.2642917289219637,
        "alt_km": 489.5638276877362,
        "timestamp": "2025-12-10T09:57:44.348382+00:00",
        "meta_object_name": "TIANMU-1 17",
        "meta_object_id": "2024-004C",
        "meta_epoch": "2025-12-09T20:49:44.393952",
        "meta_mean_motion": 15.24416725,
        "meta_eccentricity": 0.0003832,
        "meta_inclination": 97.4604,
        "meta_ra_of_asc_node": 165.1485,
        "meta_arg_of_pericenter": 312.8291,
        "meta_mean_anomaly": 47.2624,
        "meta_ephemeris_type": 0,
        "meta_classification_type": "U",
        "meta_norad_cat_id": 58702,
        "meta_element_set_no": 999,
        "meta_rev_at_epoch": 10690,
        "meta_bstar": 0.00045271,
        "meta_mean_motion_dot": 0.00011039,
        "meta_mean_motion_ddot": 0,
        "tle_line1": "1 58702U 24004C   25343.86787493  .00011039  00000+0  45271-3 0  9996",
        "tle_line2": "2 58702  97.4604 165.1485 0003832 312.8291  47.2624 15.24416725106904"
      },
      "geometry": {
        "type": "Point",
        "coordinates": [
          -2.2642917289219637,
          57.86772663817017
        ]
      }
    },
    {
      "type": "Feature",
      "properties": {
        "norad_id": 58703,
        "name": "TIANMU-1 18",
        "group": "weather",
        "lat": -32.655444220531464,
        "lon": -18.930552383226853,
        "alt_km": 499.0858505186343,
        "timestamp": "2025-12-10T09:57:44.348393+00:00",
        "meta_object_name": "TIANMU-1 18",
        "meta_object_id": "2024-004D",
        "meta_epoch": "2025-12-09T20:25:40.790784",
        "meta_mean_motion": 15.24405274,
        "meta_eccentricity": 0.0003186,
        "meta_inclination": 97.4621,
        "meta_ra_of_asc_node": 165.3266,
        "meta_arg_of_pericenter": 314.0648,
        "meta_mean_anomaly": 46.0327,
        "meta_ephemeris_type": 0,
        "meta_classification_type": "U",
        "meta_norad_cat_id": 58703,
        "meta_element_set_no": 999,
        "meta_rev_at_epoch": 10690,
        "meta_bstar": 0.00043977,
        "meta_mean_motion_dot": 0.00010716,
        "meta_mean_motion_ddot": 0,
        "tle_line1": "1 58703U 24004D   25343.85116656  .00010716  00000+0  43977-3 0  9995",
        "tle_line2": "2 58703  97.4621 165.3266 0003186 314.0648  46.0327 15.24405274106909"
      },
      "geometry": {
        "type": "Point",
        "coordinates": [
          -18.930552383226853,
          -32.655444220531464
        ]
      }
    },
    {
      "type": "Feature",
      "properties": {
        "norad_id": 58990,
        "name": "INSAT-3DS",
        "group": "weather",
        "lat": -0.017279717056934336,
        "lon": -49.09143878335056,
        "alt_km": 35781.89346624267,
        "timestamp": "2025-12-10T09:57:44.348414+00:00",
        "meta_object_name": "INSAT-3DS",
        "meta_object_id": "2024-033A",
        "meta_epoch": "2025-12-10T00:35:38.775840",
        "meta_mean_motion": 1.00269607,
        "meta_eccentricity": 0.0001616,
        "meta_inclination": 0.0292,
        "meta_ra_of_asc_node": 112.0604,
        "meta_arg_of_pericenter": 153.6709,
        "meta_mean_anomaly": 264.2623,
        "meta_ephemeris_type": 0,
        "meta_classification_type": "U",
        "meta_norad_cat_id": 58990,
        "meta_element_set_no": 999,
        "meta_rev_at_epoch": 4517,
        "meta_bstar": 0,
        "meta_mean_motion_dot": -1.52e-06,
        "meta_mean_motion_ddot": 0,
        "tle_line1": "1 58990U 24033A   25344.02475435 -.00000152  00000+0  00000+0 0  9998",
        "tle_line2": "2 58990   0.0292 112.0604 0001616 153.6709 264.2623  1.00269607 45178"
      },
      "geometry": {
        "type": "Point",
        "coordinates": [
          -49.09143878335056,
          -0.017279717056934336
        ]
      }
    },
    {
      "type": "Feature",
      "properties": {
        "norad_id": 59051,
        "name": "METEOR-M2 4",
        "group": "weather",
        "lat": 19.484014490846327,
        "lon": 124.4572970771661,
        "alt_km": 822.0117621410054,
        "timestamp": "2025-12-10T09:57:44.348429+00:00",
        "meta_object_name": "METEOR-M2 4",
        "meta_object_id": "2024-039A",
        "meta_epoch": "2025-12-10T04:08:49.920864",
        "meta_mean_motion": 14.22400601,
        "meta_eccentricity": 0.0007181,
        "meta_inclination": 98.6762,
        "meta_ra_of_asc_node": 301.122,
        "meta_arg_of_pericenter": 5.887,
        "meta_mean_anomaly": 354.2391,
        "meta_ephemeris_type": 0,
        "meta_classification_type": "U",
        "meta_norad_cat_id": 59051,
        "meta_element_set_no": 999,
        "meta_rev_at_epoch": 9239,
        "meta_bstar": 5.658e-05,
        "meta_mean_motion_dot": 8.2e-07,
        "meta_mean_motion_ddot": 0,
        "tle_line1": "1 59051U 24039A   25344.17280001  .00000082  00000+0  56580-4 0  9992",
        "tle_line2": "2 59051  98.6762 301.1220 0007181   5.8870 354.2391 14.22400601 92394"
      },
      "geometry": {
        "type": "Point",
        "coordinates": [
          124.4572970771661,
          19.484014490846327
        ]
      }
    },
    {
      "type": "Feature",
      "properties": {
        "norad_id": 60133,
        "name": "GOES 19",
        "group": "weather",
        "lat": 4.689082013666381e-06,
        "lon": 153.63327811678766,
        "alt_km": 35791.26702648664,
        "timestamp": "2025-12-10T09:57:44.348444+00:00",
        "meta_object_name": "GOES 19",
        "meta_object_id": "2024-119A",
        "meta_epoch": "2025-12-09T12:33:25.293024",
        "meta_mean_motion": 1.00271399,
        "meta_eccentricity": 0.0001348,
        "meta_inclination": 0.0188,
        "meta_ra_of_asc_node": 159.4399,
        "meta_arg_of_pericenter": 145.9183,
        "meta_mean_anomaly": 246.3286,
        "meta_ephemeris_type": 0,
        "meta_classification_type": "U",
        "meta_norad_cat_id": 60133,
        "meta_element_set_no": 999,
        "meta_rev_at_epoch": 506,
        "meta_bstar": 0,
        "meta_mean_motion_dot": -2.46e-06,
        "meta_mean_motion_ddot": 0,
        "tle_line1": "1 60133U 24119A   25343.52320941 -.00000246  00000+0  00000+0 0  9994",
        "tle_line2": "2 60133   0.0188 159.4399 0001348 145.9183 246.3286  1.00271399  5063"
      },
      "geometry": {
        "type": "Point",
        "coordinates": [
          153.63327811678766,
          4.689082013666381e-06
        ]
      }
    },
    {
      "type": "Feature",
      "properties": {
        "norad_id": 65815,
        "name": "FENGYUN 3H",
        "group": "weather",
        "lat": 58.74909078302207,
        "lon": -90.4860390355954,
        "alt_km": 819.5786235586038,
        "timestamp": "2025-12-10T09:57:44.348455+00:00",
        "meta_object_name": "FENGYUN 3H",
        "meta_object_id": "2025-219A",
        "meta_epoch": "2025-12-10T02:54:59.770368",
        "meta_mean_motion": 14.19903515,
        "meta_eccentricity": 6.03e-05,
        "meta_inclination": 98.6581,
        "meta_ra_of_asc_node": 283.7688,
        "meta_arg_of_pericenter": 86.9514,
        "meta_mean_anomaly": 273.1732,
        "meta_ephemeris_type": 0,
        "meta_classification_type": "U",
        "meta_norad_cat_id": 65815,
        "meta_element_set_no": 999,
        "meta_rev_at_epoch": 1055,
        "meta_bstar": 0.0001029,
        "meta_mean_motion_dot": 1.75e-06,
        "meta_mean_motion_ddot": 0,
        "tle_line1": "1 65815U 25219A   25344.12152512  .00000175  00000+0  10290-3 0  9998",
        "tle_line2": "2 65815  98.6581 283.7688 0000603  86.9514 273.1732 14.19903515 10552"
      },
      "geometry": {
        "type": "Point",
        "coordinates": [
          -90.4860390355954,
          58.74909078302207
        ]
      }
    }
  ]
}